{
 "type": "FeatureCollection",
 "name": "coquitlam_tile_coverage",
 "crs": {
  "type": "name",
  "properties": {
   "name": "urn:ogc:def:crs:OGC:1.3:CRS84"
  }
 },
 "metadata": {
  "source": "public.city_boundary (City of Coquitlam Open Data), queried 2026-08-23",
  "derivation": "ST_Simplify(ST_Buffer(geom::geography, 1000)::geometry, 0.0008)",
  "buffer_m": 1000,
  "buffer_rationale": "border and mutual-aid response outside the municipal line",
  "simplify_deg": 0.0008,
  "simplify_rationale": "~60 m, well under one z20 tile (~30 m); this polygon selects tiles, it is not used for any spatial decision about a call",
  "area_km2": 199.4,
  "bbox_area_km2": 289.3,
  "note": "Regenerate with backend/scripts/export_tile_coverage.py if the municipal boundary changes. Do NOT hand-edit."
 },
 "features": [
  {
   "type": "Feature",
   "properties": {
    "name": "Coquitlam + 1km"
   },
   "geometry": {
    "type": "Polygon",
    "coordinates": [
     [
      [
       -122.890137,
       49.227027
      ],
      [
       -122.899614,
       49.229554
      ],
      [
       -122.90602,
       49.236134
      ],
      [
       -122.907175,
       49.270192
      ],
      [
       -122.906241,
       49.273708
      ],
      [
       -122.901193,
       49.277865
      ],
      [
       -122.896169,
       49.279255
      ],
      [
       -122.854635,
       49.279747
      ],
      [
       -122.848856,
       49.281484
      ],
      [
       -122.837298,
       49.282049
      ],
      [
       -122.834909,
       49.285755
      ],
      [
       -122.834942,
       49.290817
      ],
      [
       -122.83652,
       49.294894
      ],
      [
       -122.836521,
       49.351082
      ],
      [
       -122.834214,
       49.356105
      ],
      [
       -122.830402,
       49.358599
      ],
      [
       -122.822717,
       49.360115
      ],
      [
       -122.621073,
       49.360143
      ],
      [
       -122.613336,
       49.358583
      ],
      [
       -122.608279,
       49.354451
      ],
      [
       -122.607321,
       49.350952
      ],
      [
       -122.60987,
       49.345931
      ],
      [
       -122.645413,
       49.325886
      ],
      [
       -122.664117,
       49.311493
      ],
      [
       -122.664629,
       49.310412
      ],
      [
       -122.663246,
       49.309105
      ],
      [
       -122.649885,
       49.303847
      ],
      [
       -122.64571,
       49.298859
      ],
      [
       -122.645149,
       49.294904
      ],
      [
       -122.646375,
       49.29109
      ],
      [
       -122.653783,
       49.284699
      ],
      [
       -122.678848,
       49.277849
      ],
      [
       -122.697366,
       49.269655
      ],
      [
       -122.736591,
       49.269582
      ],
      [
       -122.743647,
       49.272043
      ],
      [
       -122.74743,
       49.276752
      ],
      [
       -122.753731,
       49.276738
      ],
      [
       -122.755785,
       49.273339
      ],
      [
       -122.761977,
       49.269994
      ],
      [
       -122.776881,
       49.269442
      ],
      [
       -122.777955,
       49.25778
      ],
      [
       -122.783171,
       49.253423
      ],
      [
       -122.78177,
       49.249772
      ],
      [
       -122.782313,
       49.246118
      ],
      [
       -122.788737,
       49.240524
      ],
      [
       -122.786446,
       49.234621
      ],
      [
       -122.791425,
       49.226044
      ],
      [
       -122.791536,
       49.218727
      ],
      [
       -122.79352,
       49.2155
      ],
      [
       -122.797224,
       49.213008
      ],
      [
       -122.804742,
       49.211417
      ],
      [
       -122.879565,
       49.211109
      ],
      [
       -122.886327,
       49.213636
      ],
      [
       -122.889164,
       49.216514
      ],
      [
       -122.890137,
       49.227027
      ]
     ]
    ]
   }
  }
 ]
}